OBJECT_NAME,OBJECT_ID,EPOCH,MEAN_MOTION,ECCENTRICITY,INCLINATION,RA_OF_ASC_NODE,ARG_OF_PERICENTER,MEAN_ANOMALY,EPHEMERIS_TYPE,CLASSIFICATION_TYPE,NORAD_CAT_ID,ELEMENT_SET_NO,REV_AT_EPOCH,BSTAR,MEAN_MOTION_DOT,MEAN_MOTION_DDOT
QZS-3 (MICHIBIKI-3),2017-048A,2026-07-15T19:06:20.372832,1.00271863,.0002547,0.0645,214.0299,272.5182,220.7141,0,U,42917,999,3254,0,-.358E-5,0
AMAZONAS 5,2017-053A,2026-07-14T01:08:59.868096,1.00268891,.00010296,0.0321,328.7293,114.1312,165.2908,0,U,42934,999,3231,0,-.288E-5,0
ASIASAT 9,2017-057A,2026-07-15T20:47:34.775808,1.00273898,.0002424,0.0138,40.1044,67.9630,259.6457,0,U,42942,999,3214,0,-.37E-5,0
INTELSAT 37E (IS-37E),2017-059A,2026-07-15T18:24:59.416704,1.00269761,.0002607,0.0169,49.6350,74.0431,68.1552,0,U,42950,999,3235,0,-.152E-5,0
BSAT-4A,2017-059B,2026-07-13T12:16:30.855936,1.00272286,.00033938,0.0357,21.9752,56.7278,146.6395,0,U,42951,999,3206,0,-.354E-5,0
QZS-4 (MICHIBIKI-4),2017-062A,2026-07-14T14:36:13.319136,1.00290232,.0747384,40.0921,343.1359,268.5643,38.8857,0,U,42965,999,3207,0,-.342E-5,0
SES-11 (ECHOSTAR 105),2017-063A,2026-07-15T16:17:30.770304,1.00271084,.0002672,0.0365,300.2454,163.3516,329.3441,0,U,42967,999,3200,0,-.99E-6,0
KOREASAT 5A,2017-067A,2026-07-15T19:02:20.757120,1.00270226,.00007,0.0328,288.2466,173.3705,230.7389,0,U,42984,999,3181,0,-.368E-5,0
ALCOMSAT 1,2017-078A,2026-07-15T18:23:07.096704,1.00268663,.0002237,0.0511,261.9245,208.7737,73.8622,0,U,43039,999,3158,0,-.197E-5,0
SBIRS GEO-3 (USA 282),2018-009A,2026-07-15T17:44:40.781760,1.00270606,.0001743,2.2052,13.4305,98.9634,287.9605,0,U,43162,999,3113,0,.117E-5,0
AL YAH 3,2018-012A,2026-07-15T18:24:21.976992,1.00270671,.000355,1.6236,82.7591,30.6236,76.2023,0,U,43174,999,3113,0,-.167E-5,0
SES-14,2018-012B,2026-07-15T18:16:37.720416,1.00271097,.0000803,0.0141,35.1524,85.5440,39.5507,0,U,43175,999,731,0,-.289E-5,0
GOES 17,2018-022A,2026-07-15T14:39:20.509056,1.00270998,.0000551,1.0080,85.2498,79.8372,258.7068,0,U,43226,999,3070,0,-.193E-5,0
HISPASAT 30W-6,2018-023A,2026-07-14T03:00:32.972832,1.00270644,.00051302,0.0444,50.2849,39.9946,216.8713,0,U,43228,999,3067,0,-.222E-5,0
SUPERBIRD-B3,2018-033A,2026-07-15T17:33:41.834880,1.00270817,.0001057,0.0167,27.5053,101.4944,230.0013,0,U,43271,999,3034,0,-.103E-5,0
HYLAS 4,2018-033B,2026-07-15T12:58:38.601120,1.00270958,.0000622,0.0205,300.3338,217.4704,296.7451,0,U,43272,999,3035,0,-.244E-5,0
IRNSS-1I,2018-035A,2026-07-15T18:06:38.752416,1.00271937,.0018429,28.8196,73.7504,178.5609,8.0026,0,U,43286,999,3036,0,.58E-6,0
USA 283,2018-036A,2026-07-13T12:26:22.439328,1.00270146,.000101,0.0181,51.7317,164.1991,36.1561,0,U,43339,999,2555,0,0,0
COSMOS 2526,2018-037A,2026-07-15T00:17:30.350976,1.00268298,.00008216,0.0358,106.6288,157.1060,161.5486,0,U,43432,999,3023,0,-.354E-5,0
APSTAR-6C,2018-041A,2026-07-14T16:13:15.007296,1.00273807,.0000779,0.0593,289.3735,296.5328,83.9303,0,U,43450,999,3008,0,-.326E-5,0
BANGABANDHUSAT-1,2018-044A,2026-07-15T19:04:05.588832,1.00269801,.0001717,0.0249,95.6095,30.9355,212.1996,0,U,43463,999,2999,0,-.373E-5,0
SES-12,2018-049A,2026-07-15T18:57:13.746816,1.00269184,.0000798,0.0111,21.5061,230.1019,61.3172,0,U,43488,999,2970,0,-.279E-5,0
FENGYUN 2H,2018-050A,2026-07-15T20:35:18.744576,1.00267068,.0002306,3.1025,78.7284,133.9996,108.9194,0,U,43491,999,2972,0,-.139E-5,0
BEIDOU-2 IGSO-7,2018-057A,2026-07-01T21:23:21.693984,1.00246939,.01049468,55.1981,162.9292,237.8611,308.6338,0,U,43539,999,2927,0,-.33E-6,0
TELSTAR 19V,2018-059A,2026-07-15T18:12:00.663264,1.00269497,.0002846,0.0276,147.2534,343.1309,13.2143,0,U,43562,999,2943,0,-.29E-5,0
TELKOM 4 (MERAH PUTIH),2018-064A,2026-07-14T07:05:12.439104,1.00269319,.0000994,0.0219,81.5910,39.4509,25.4085,0,U,43587,999,2915,0,-.351E-5,0
TELSTAR 18V,2018-069A,2026-07-13T12:29:20.367168,1.00269998,.00016639,0.0151,318.0250,158.6111,140.0899,0,U,43611,999,2890,0,-.298E-5,0
AZERSPACE 2 (IS-38),2018-074A,2026-07-15T20:25:42.166272,1.00273206,.0001618,0.0246,58.5053,67.4827,159.2538,0,U,43632,999,2873,0,0,0
HORIZONS-3E,2018-074B,2026-07-13T15:21:38.465856,1.00270118,.00009408,0.0498,224.9289,53.6947,52.2963,0,U,43633,999,2860,0,-.35E-6,0
AEHF-4 (USA 288),2018-079A,2026-07-15T18:11:00.756960,1.00276171,.0058536,1.4403,6.3423,353.9038,138.5608,0,U,43651,999,2858,0,-.285E-5,0
BEIDOU-3 G1,2018-085A,2026-07-15T19:15:41.977152,1.00272475,.0007998,2.9383,96.5942,356.5572,289.3821,0,U,43683,999,2834,0,-.121E-5,0
GSAT-29,2018-089A,2026-07-14T20:50:35.243808,1.00275871,.00029554,0.0565,246.2149,199.3608,214.9248,0,U,43698,999,2806,0,.75E-6,0
